OBJECT_NAME,OBJECT_ID,EPOCH,MEAN_MOTION,ECCENTRICITY,INCLINATION,RA_OF_ASC_NODE,ARG_OF_PERICENTER,MEAN_ANOMALY,EPHEMERIS_TYPE,CLASSIFICATION_TYPE,NORAD_CAT_ID,ELEMENT_SET_NO,REV_AT_EPOCH,BSTAR,MEAN_MOTION_DOT,MEAN_MOTION_DDOT
STARLINK-3248,2021-115AA,2024-08-20T03:03:29.536416,15.08837491,.0001487,53.2173,172.0956,91.5874,268.5288,0,U,49748,999,15001,.10271E-3,.1347E-4,0
STARLINK-3250,2021-115AB,2024-08-20T02:43:45.731136,15.08893172,.000142,53.2161,172.8225,68.3731,291.7412,0,U,49749,999,14999,.95813E-3,.15016E-3,0
STARLINK-3236,2021-115AC,2024-08-20T05:49:13.215648,15.08849787,.0001381,53.2161,172.0119,90.2898,269.8253,0,U,49750,999,15002,.12825E-2,.20187E-3,0
STARLINK-3229,2021-115AD,2024-08-20T05:21:19.546560,15.08846969,.0001303,53.2160,172.0107,82.2246,277.8894,0,U,49751,999,15113,.14216E-3,.1976E-4,0
STARLINK-3209,2021-115AE,2024-08-20T04:36:21.620160,15.08836684,.0001403,53.2166,162.2392,87.3212,272.7941,0,U,49752,999,15015,.19789E-3,.2863E-4,0
STARLINK-3200,2021-115AF,2024-08-20T05:42:32.080320,15.08849235,.0001414,53.2155,172.0229,87.0261,273.0893,0,U,49753,999,15002,.22892E-3,.3358E-4,0
STARLINK-3193,2021-115AG,2024-08-20T18:58:45.464736,15.08845100,.0001763,53.2158,159.6473,88.9757,271.1437,0,U,49754,999,15135,.22063E-4,.63E-6,0
STARLINK-3210,2021-115AH,2024-08-20T05:59:49.549920,15.08837722,.0001321,53.2164,172.0148,99.8846,260.2295,0,U,49755,999,15002,.33902E-4,.252E-5,0
STARLINK-3207,2021-115AJ,2024-08-20T19:09:20.501280,15.08846408,.0001276,53.2157,159.5045,86.6779,273.4359,0,U,49756,999,15135,.67824E-4,.792E-5,0
STARLINK-3197,2021-115AK,2024-08-20T04:41:39.152256,15.08846812,.0001466,53.2154,162.2226,87.9314,272.1846,0,U,49757,999,15015,.7184E-3,.11166E-3,0
STARLINK-3194,2021-115AL,2024-08-20T05:01:28.293600,15.08839831,.0001502,53.2162,162.1491,99.6368,260.4794,0,U,49758,999,15015,.1454E-3,.2027E-4,0
STARLINK-3204,2021-115AM,2024-08-20T04:45:34.771968,15.08837799,.0001422,53.2162,162.2000,88.0077,272.1078,0,U,49759,999,15015,.10754E-3,.1424E-4,0
STARLINK-3199,2021-115AN,2024-08-20T05:12:04.235616,15.08840949,.000154,53.2178,162.1158,106.5192,253.5969,0,U,49760,999,15016,.43876E-4,.41E-5,0
STARLINK-3203,2021-115AP,2024-08-20T01:45:23.939136,15.08842863,.0001387,53.2159,162.7587,105.7277,254.3868,0,U,49761,999,15013,-.26657E-4,-.712E-5,0
STARLINK-3195,2021-115AQ,2024-08-20T19:41:08.464704,15.08844697,.0001105,53.2162,159.4093,95.8479,264.2639,0,U,49762,999,15136,.88293E-3,.13794E-3,0
STARLINK-3198,2021-115AR,2024-08-20T05:06:46.628352,15.08831585,.000146,53.2157,162.1342,97.5315,262.5843,0,U,49763,999,15127,.24257E-3,.3574E-4,0
STARLINK-3227,2021-115AT,2024-08-20T05:18:44.908704,15.08853545,.0001108,53.2161,162.1065,78.9232,281.1884,0,U,49765,999,15127,.20811E-3,.3027E-4,0
STARLINK-3190,2021-115AU,2024-08-20T18:23:01.805568,15.08840137,.0001496,53.2178,159.6647,110.4565,249.6588,0,U,49766,999,15135,.15734E-3,.2217E-4,0
STARLINK-3192,2021-115AV,2024-08-20T05:27:58.184064,15.08838000,.0001238,53.2156,162.0658,89.4472,270.6662,0,U,49767,999,15016,.44599E-4,.422E-5,0
STARLINK-3196,2021-115AW,2024-08-20T04:13:46.744608,15.08831344,.0001671,53.2172,162.3012,99.4751,260.6430,0,U,49768,999,15015,-.59224E-4,-.123E-4,0
STARLINK-3208,2021-115AX,2024-08-20T18:33:38.094912,15.08841752,.000135,53.2170,159.6666,95.9866,264.1280,0,U,49769,999,15135,.83767E-4,.1046E-4,0
STARLINK-3191,2021-115AY,2024-08-20T06:01:09.533856,15.08837317,.0001376,53.2172,162.0115,81.8774,278.2374,0,U,49770,999,15128,.90761E-4,.1157E-4,0
STARLINK-3201,2021-115AZ,2024-08-20T04:24:22.609728,15.08837682,.0001603,53.2170,162.2680,104.8530,255.2640,0,U,49771,999,15015,-.31536E-4,-.79E-5,0
GLOBAL-12,2021-115BA,2024-08-19T14:00:44.845632,15.38278362,.0006344,53.2034,311.8123,319.3013,40.7517,0,U,49772,999,15308,.88705E-3,.3373E-3,0
GLOBAL-13,2021-115BB,2024-08-20T12:47:54.769920,15.38113122,.0008013,53.2066,308.6090,315.8656,44.1708,0,U,49773,999,15321,.10414E-2,.39498E-3,0
GSAT0223 (GALILEO 27),2021-116A,2024-08-19T14:53:42.788832,1.70475793,.0003146,57.2972,359.6607,184.7422,168.5999,0,U,49809,999,1681,0,-.83E-6,0
GSAT0224 (GALILEO 28),2021-116B,2024-08-19T10:32:42.819072,1.70475856,.0002661,57.2979,359.6640,174.8592,179.7600,0,U,49810,999,1683,0,-.83E-6,0
STPSAT-6,2021-118A,2024-08-20T14:26:23.623584,1.00272088,.0000354,0.0429,277.5570,303.9360,212.8406,0,U,49817,999,990,0,-.53E-6,0
LDPE-1,2021-118B,2024-08-20T14:27:42.816096,1.00556769,.0000444,2.4382,87.2120,168.1082,102.0409,0,U,49818,999,995,0,.28E-6,0
GLOBAL-17,2021-120A,2024-08-19T08:04:28.015104,15.38025404,.0006755,42.0047,351.8358,325.7585,34.2818,0,U,49949,999,15205,.31225E-2,.121258E-2,0
GLOBAL-16,2021-120B,2024-08-20T14:28:00.532416,15.37793615,.0007256,42.0063,343.9931,323.4734,36.5609,0,U,49950,999,15224,.80514E-3,.30464E-3,0
IXPE,2021-121A,2024-08-20T14:00:01.999872,14.99257438,.0009808,0.2299,275.1578,158.0997,142.4132,0,U,49954,999,574,.93363E-3,.12567E-3,0
SHIJIAN-6 05A (SJ-6 05A),2021-122A,2024-08-20T20:55:41.701152,14.94970326,.0001896,97.3397,228.8750,94.8059,265.3379,0,U,49961,999,14918,.54251E-3,.5877E-4,0
SHIJIAN-6 05B (SJ-6 05B),2021-122B,2024-08-20T14:47:06.561888,15.07035888,.0002269,97.3266,230.2735,131.2149,228.9276,0,U,49962,999,14931,.40225E-3,.5972E-4,0
EXPRESS AMU-7,2021-123A,2024-08-19T16:25:59.587680,1.00272538,.0000519,0.0180,208.7748,152.5967,358.6232,0,U,50001,999,986,0,-.249E-5,0
EXPRESS AMU-3,2021-123B,2024-08-20T19:09:58.258944,1.00271582,.0000321,0.0106,141.5058,166.1519,52.3394,0,U,50002,999,983,0,-.328E-5,0
TIANLIAN 2-02,2021-124A,2024-08-20T14:27:42.816096,1.00271019,.0001447,0.5097,273.2362,271.4420,172.6262,0,U,50005,999,994,0,-.22E-6,0
STARLINK-3317,2021-125A,2024-08-20T07:59:03.525216,15.08836552,.0001347,53.2146,271.5986,65.0193,295.0939,0,U,50156,999,15113,-.23584E-5,-.325E-5,0
STARLINK-3313,2021-125B,2024-08-20T10:08:49.570080,15.08840551,.0001742,53.2145,281.1926,100.3719,259.7469,0,U,50157,999,15101,.11524E-3,.1546E-4,0
STARLINK-3309,2021-125C,2024-08-20T09:54:18.296064,15.08849103,.0001442,53.2162,281.2456,92.3102,267.8056,0,U,50158,999,15103,.68236E-5,-.179E-5,0
STARLINK-3297,2021-125D,2024-08-20T08:13:37.030080,15.08851977,.0001271,53.2156,281.5618,97.9769,262.1367,0,U,50159,999,15095,.60298E-4,.672E-5,0
STARLINK-3288,2021-125E,2024-08-20T09:58:13.346400,15.08849266,.00016,53.2145,281.2275,82.5257,277.5917,0,U,50160,999,15097,.1105E-3,.1471E-4,0
STARLINK-3304,2021-125F,2024-08-20T10:03:30.990816,15.08849704,.000144,53.2158,281.2103,83.5135,276.6021,0,U,50161,999,15096,.37496E-4,.309E-5,0
STARLINK-3306,2021-125H,2024-08-20T08:04:17.378400,15.08842923,.000143,53.2159,261.5730,99.0255,261.0899,0,U,50163,999,15123,.93394E-4,.1199E-4,0
STARLINK-3298,2021-125K,2024-08-20T08:06:56.794176,15.08843836,.0001606,53.2160,281.5718,86.1519,273.9657,0,U,50165,999,15100,.68905E-4,.809E-5,0
STARLINK-3305,2021-125L,2024-08-20T10:06:13.195584,15.08840703,.0001442,53.2163,271.1357,104.2822,255.8330,0,U,50166,999,15110,.72379E-4,.864E-5,0
STARLINK-3271,2021-125M,2024-08-20T14:19:15.963456,15.08847485,.000137,53.2152,280.4203,82.4864,277.6284,0,U,50167,999,15099,.10477E-3,.138E-4,0
STARLINK-3296,2021-125N,2024-08-20T10:22:08.375232,15.08847931,.0001534,53.2155,271.2391,83.4427,276.6740,0,U,50168,999,15111,.88058E-4,.1114E-4,0
STARLINK-3301,2021-125P,2024-08-20T14:13:53.988672,15.08828997,.0001377,53.2147,270.4282,79.5646,280.5502,0,U,50169,999,14805,.55846E-4,.601E-5,0
STARLINK-3245,2021-125Q,2024-08-20T09:59:33.774432,15.08837970,.0001042,53.2139,271.2228,78.2474,281.8634,0,U,50170,999,15110,.27843E-4,.155E-5,0
STARLINK-3286,2021-125R,2024-08-20T10:20:44.882592,15.08846092,.0001381,53.2159,271.1564,91.3154,268.7997,0,U,50171,999,15111,.11202E-3,.1496E-4,0
STARLINK-3287,2021-125S,2024-08-20T08:13:34.095072,15.08839584,.0001502,53.2165,271.5539,99.0979,261.0183,0,U,50172,999,15113,.7765E-4,.948E-5,0
STARLINK-3289,2021-125T,2024-08-20T09:02:35.681568,15.08834625,.0001234,53.2163,261.4644,72.4498,287.6629,0,U,50173,999,15125,.91902E-4,.1175E-4,0
STARLINK-3292,2021-125U,2024-08-20T14:00:01.999872,15.11453595,.0001008,53.2147,266.4028,90.8597,150.9212,0,U,50174,999,552,.22772E-2,.38867E-3,0
STARLINK-3291,2021-125V,2024-08-20T11:40:14.280960,15.08843989,.0001373,53.2157,270.9093,84.6721,275.4428,0,U,50175,999,15112,.73341E-4,.88E-5,0
STARLINK-3293,2021-125W,2024-08-20T08:02:57.848928,15.08842831,.0001481,53.2157,271.5848,88.7267,271.3894,0,U,50176,999,15114,.74555E-4,.899E-5,0
STARLINK-3282,2021-125X,2024-08-20T08:18:52.204320,15.08840643,.0001324,53.2160,271.5363,89.5381,270.5762,0,U,50177,999,15110,.74134E-4,.892E-5,0
STARLINK-3284,2021-125Y,2024-08-20T10:11:30.236064,15.08842457,.0001369,53.2157,271.0415,84.3617,275.7531,0,U,50178,999,15062,.99627E-4,.1298E-4,0
STARLINK-3283,2021-125Z,2024-08-20T08:08:16.137024,15.08841790,.0001344,53.2143,271.5645,79.7707,280.3436,0,U,50179,999,15061,-.40084E-4,-.926E-5,0
STARLINK-3265,2021-125AA,2024-08-20T09:23:50.053920,15.08846103,.0001326,53.2150,271.3403,95.8613,264.2530,0,U,50180,999,15115,.11536E-4,-.104E-5,0
STARLINK-3285,2021-125AB,2024-08-20T07:37:50.695104,15.08851655,.0001452,53.2168,271.6718,86.9645,273.1513,0,U,50181,999,15110,-.40286E-4,-.929E-5,0
STARLINK-3277,2021-125AC,2024-08-20T10:15:25.380576,15.08844505,.0001343,53.2151,271.0192,78.4387,281.6756,0,U,50182,999,15115,.46058E-4,.445E-5,0
STARLINK-3281,2021-125AD,2024-08-20T09:06:33.419808,15.08845373,.0001486,53.2160,271.3859,87.2847,272.8316,0,U,50183,999,15115,.82761E-4,.103E-4,0
STARLINK-3279,2021-125AF,2024-08-20T07:47:04.687584,15.08843110,.0001435,53.2162,271.6675,97.8882,262.2273,0,U,50185,999,15110,.58454E-4,.643E-5,0
STARLINK-3274,2021-125AG,2024-08-20T09:37:02.023104,15.08844459,.0001532,53.2154,281.2889,94.8762,265.2405,0,U,50186,999,15096,.12932E-3,.1771E-4,0
STARLINK-3272,2021-125AH,2024-08-20T07:05:59.900352,15.08846232,.0001492,53.2165,261.7609,95.3500,264.7663,0,U,50187,999,15121,.27596E-4,.151E-5,0
